GLOBALSTAR M075         
1 37192U 10054E   24236.76779101 -.00000078  00000+0  14638-3 0  9997
2 37192  51.9974   7.1145 0000689  94.2492  53.5941 12.62263259638811
GLOBALSTAR M073         
1 37193U 10054F   24236.61400994 -.00000075  00000+0  16145-3 0  9995
2 37193  52.0053 281.1784 0000492 103.0894  65.0733 12.62268624640251
GLOBALSTAR M083         
1 37739U 11033A   24236.54433542 -.00000104  00000+0 -29250-5 0  9993
2 37739  51.9843 230.5247 0000151  20.6584 132.0216 12.62263523609266
GLOBALSTAR M088         
1 37740U 11033B   24237.47198566 -.00000073  00000+0  17208-3 0  9994
2 37740  51.9729 133.4395 0000607  40.8803 129.8431 12.62266531605216
GLOBALSTAR M091         
1 37741U 11033C   24236.37709054 -.00000078  00000+0  14363-3 0  9997
2 37741  51.9993  99.7998 0000593  42.2758 128.8531 12.62266129605574
GLOBALSTAR M085         
1 37742U 11033D   24237.52139674 -.00000107  00000+0 -17299-4 0  9997
2 37742  51.9877  47.6137 0000631  71.0384 323.9056 12.62264723606727
GLOBALSTAR M081         
1 37743U 11033E   24237.01920332 -.00000095  00000+0  46343-4 0  9998
2 37743  51.9967  51.7471 0000861  61.3078  90.1762 12.62268422606695
GLOBALSTAR M089         
1 37744U 11033F   24237.51784236 -.00000093  00000+0  60010-4 0  9990
2 37744  51.9955   4.5156 0001085  95.4533 341.4608 12.62267314607479
